{"type": "FeatureCollection", "features": [{"type": "Feature", "properties": {"norad_id": 22490, "name": "SCD 1", "group": "resource", "lat": -23.772985980450947, "lon": 118.04168491001103, "alt_km": 768.7048310087475, "timestamp": "2025-12-27T05:29:38.850514+00:00", "meta": {"OBJECT_NAME": "SCD 1", "OBJECT_ID": "1993-009B", "EPOCH": "2025-12-26T15:05:04.547040", "MEAN_MOTION": 14.46008245, "ECCENTRICITY": 0.0042179, "INCLINATION": 24.9674, "RA_OF_ASC_NODE": 192.9471, "ARG_OF_PERICENTER": 111.7084, "MEAN_ANOMALY": 283.5703, "EPHEMERIS_TYPE": 0, "CLASSIFICATION_TYPE": "U", "NORAD_CAT_ID": 22490, "ELEMENT_SET_NO": 999, "REV_AT_EPOCH": 73611, "BSTAR": 9.5318e-05, "MEAN_MOTION_DOT": 5.34e-06, "MEAN_MOTION_DDOT": 0}, "tle": {"line1": "1 22490U 93009B   25360.62852485  .00000534  00000+0  95318-4 0  9995", "line2": "2 22490  24.9674 192.9471 0042179 111.7084 283.5703 14.46008245736119"}}, "geometry": {"type": "Point", "coordinates": [118.04168491001103, -23.772985980450947]}}, {"type": "Feature", "properties": {"norad_id": 25397, "name": "TECHSAT 1B (GO-32)", "group": "resource", "lat": -79.48071026500553, "lon": 106.2497276023745, "alt_km": 818.5996704804575, "timestamp": "2025-12-27T05:29:38.850544+00:00", "meta": {"OBJECT_NAME": "TECHSAT 1B (GO-32)", "OBJECT_ID": "1998-043D", "EPOCH": "2025-12-26T21:30:44.500032", "MEAN_MOTION": 14.24381035, "ECCENTRICITY": 0.00016007, "INCLINATION": 98.9935, "RA_OF_ASC_NODE": 344.436, "ARG_OF_PERICENTER": 33.7104, "MEAN_ANOMALY": 326.4176, "EPHEMERIS_TYPE": 0, "CLASSIFICATION_TYPE": "U", "NORAD_CAT_ID": 25397, "ELEMENT_SET_NO": 999, "REV_AT_EPOCH": 42680, "BSTAR": 7.2285979e-05, "MEAN_MOTION_DOT": 1.21e-06, "MEAN_MOTION_DDOT": 0}, "tle": {"line1": "1 25397U 98043D   25360.89634838  .00000121  00000+0  72286-4 0  9997", "line2": "2 25397  98.9935 344.4360 0001600  33.7104 326.4176 14.24381035426800"}}, "geometry": {"type": "Point", "coordinates": [106.2497276023745, -79.48071026500553]}}, {"type": "Feature", "properties": {"norad_id": 25504, "name": "SCD 2", "group": "resource", "lat": -23.565116750258994, "lon": -16.857960651130043, "alt_km": 753.2561822903845, "timestamp": "2025-12-27T05:29:38.850559+00:00", "meta": {"OBJECT_NAME": "SCD 2", "OBJECT_ID": "1998-060A", "EPOCH": "2025-12-26T13:56:13.357824", "MEAN_MOTION": 14.45430804, "ECCENTRICITY": 0.0017071, "INCLINATION": 24.9957, "RA_OF_ASC_NODE": 56.5516, "ARG_OF_PERICENTER": 99.0432, "MEAN_ANOMALY": 49.9342, "EPHEMERIS_TYPE": 0, "CLASSIFICATION_TYPE": "U", "NORAD_CAT_ID": 25504, "ELEMENT_SET_NO": 999, "REV_AT_EPOCH": 43532, "BSTAR": 8.1486e-05, "MEAN_MOTION_DOT": 4.74e-06, "MEAN_MOTION_DDOT": 0}, "tle": {"line1": "1 25504U 98060A   25360.58071016  .00000474  00000+0  81486-4 0  9998", "line2": "2 25504  24.9957  56.5516 0017071  99.0432  49.9342 14.45430804435326"}}, "geometry": {"type": "Point", "coordinates": [-16.857960651130043, -23.565116750258994]}}, {"type": "Feature", "properties": {"norad_id": 25757, "name": "DLR-TUBSAT", "group": "resource", "lat": 39.39707587494535, "lon": 173.3777108378656, "alt_km": 704.9404307738232, "timestamp": "2025-12-27T05:29:38.850572+00:00", "meta": {"OBJECT_NAME": "DLR-TUBSAT", "OBJECT_ID": "1999-029B", "EPOCH": "2025-12-17T13:22:10.787520", "MEAN_MOTION": 14.52359578, "ECCENTRICITY": 0.00141996, "INCLINATION": 98.6566, "RA_OF_ASC_NODE": 336.2196, "ARG_OF_PERICENTER": 177.8976, "MEAN_ANOMALY": 182.2281, "EPHEMERIS_TYPE": 0, "CLASSIFICATION_TYPE": "U", "NORAD_CAT_ID": 25757, "ELEMENT_SET_NO": 999, "REV_AT_EPOCH": 40688, "BSTAR": 3.7650132e-05, "MEAN_MOTION_DOT": 1.05e-06, "MEAN_MOTION_DDOT": 0}, "tle": {"line1": "1 25757U 99029B   25351.55706930  .00000105  00000+0  37650-4 0  9996", "line2": "2 25757  98.6566 336.2196 0014199 177.8976 182.2281 14.52359578406886"}}, "geometry": {"type": "Point", "coordinates": [173.3777108378656, 39.39707587494535]}}, {"type": "Feature", "properties": {"norad_id": 25994, "name": "TERRA", "group": "resource", "lat": -70.70087320659917, "lon": 75.9726656723579, "alt_km": 699.2523468725058, "timestamp": "2025-12-27T05:29:38.850584+00:00", "meta": {"OBJECT_NAME": "TERRA", "OBJECT_ID": "1999-068A", "EPOCH": "2025-12-26T22:04:57.940320", "MEAN_MOTION": 14.60917878, "ECCENTRICITY": 0.00033721, "INCLINATION": 97.9729, "RA_OF_ASC_NODE": 52.0828, "ARG_OF_PERICENTER": 66.059, "MEAN_ANOMALY": 38.4984, "EPHEMERIS_TYPE": 0, "CLASSIFICATION_TYPE": "U", "NORAD_CAT_ID": 25994, "ELEMENT_SET_NO": 999, "REV_AT_EPOCH": 38445, "BSTAR": 0.00012584055, "MEAN_MOTION_DOT": 5.72e-06, "MEAN_MOTION_DDOT": 0}, "tle": {"line1": "1 25994U 99068A   25360.92011505  .00000572  00000+0  12584-3 0  9996", "line2": "2 25994  97.9729  52.0828 0003372  66.0590  38.4984 14.60917878384451"}}, "geometry": {"type": "Point", "coordinates": [75.9726656723579, -70.70087320659917]}}, {"type": "Feature", "properties": {"norad_id": 27004, "name": "MAROC-TUBSAT", "group": "resource", "lat": -55.01365280098064, "lon": -24.35737273160238, "alt_km": 991.7918541467288, "timestamp": "2025-12-27T05:29:38.850597+00:00", "meta": {"OBJECT_NAME": "MAROC-TUBSAT", "OBJECT_ID": "2001-056D", "EPOCH": "2025-12-26T23:39:38.000736", "MEAN_MOTION": 13.70253593, "ECCENTRICITY": 0.00193228, "INCLINATION": 99.7918, "RA_OF_ASC_NODE": 169.6806, "ARG_OF_PERICENTER": 222.3988, "MEAN_ANOMALY": 255.3237, "EPHEMERIS_TYPE": 0, "CLASSIFICATION_TYPE": "U", "NORAD_CAT_ID": 27004, "ELEMENT_SET_NO": 999, "REV_AT_EPOCH": 20260, "BSTAR": 3.0812837e-05, "MEAN_MOTION_DOT": -1.9e-07, "MEAN_MOTION_DDOT": 0}, "tle": {"line1": "1 27004U 01056D   25360.98585649 -.00000019  00000+0  30813-4 0  9994", "line2": "2 27004  99.7918 169.6806 0019322 222.3988 255.3237 13.70253593202600"}}, "geometry": {"type": "Point", "coordinates": [-24.35737273160238, -55.01365280098064]}}, {"type": "Feature", "properties": {"norad_id": 27424, "name": "AQUA", "group": "resource", "lat": -29.75858254199315, "lon": 137.4953354107097, "alt_km": 693.9666700025518, "timestamp": "2025-12-27T05:29:38.850608+00:00", "meta": {"OBJECT_NAME": "AQUA", "OBJECT_ID": "2002-022A", "EPOCH": "2025-12-24T19:18:33.414624", "MEAN_MOTION": 14.61757572, "ECCENTRICITY": 0.00018094, "INCLINATION": 98.4055, "RA_OF_ASC_NODE": 319.881, "ARG_OF_PERICENTER": 102.1365, "MEAN_ANOMALY": 317.5475, "EPHEMERIS_TYPE": 0, "CLASSIFICATION_TYPE": "U", "NORAD_CAT_ID": 27424, "ELEMENT_SET_NO": 999, "REV_AT_EPOCH": 25779, "BSTAR": 0.00019560508, "MEAN_MOTION_DOT": 9.26e-06, "MEAN_MOTION_DDOT": 0}, "tle": {"line1": "1 27424U 02022A   25358.80455341  .00000926  00000+0  19561-3 0  9999", "line2": "2 27424  98.4055 319.8810 0001809 102.1365 317.5475 14.61757572257795"}}, "geometry": {"type": "Point", "coordinates": [137.4953354107097, -29.75858254199315]}}, {"type": "Feature", "properties": {"norad_id": 28051, "name": "IRS-P6 (RESOURCESAT-1)", "group": "resource", "lat": 5.36772571001174, "lon": -138.25946650526436, "alt_km": 736.4750282919858, "timestamp": "2025-12-27T05:29:38.850618+00:00", "meta": {"OBJECT_NAME": "IRS-P6 (RESOURCESAT-1)", "OBJECT_ID": "2003-046A", "EPOCH": "2025-12-27T00:12:00.059328", "MEAN_MOTION": 14.3608033, "ECCENTRICITY": 0.00650007, "INCLINATION": 98.2159, "RA_OF_ASC_NODE": 40.7524, "ARG_OF_PERICENTER": 138.1152, "MEAN_ANOMALY": 336.144, "EPHEMERIS_TYPE": 0, "CLASSIFICATION_TYPE": "U", "NORAD_CAT_ID": 28051, "ELEMENT_SET_NO": 999, "REV_AT_EPOCH": 15581, "BSTAR": 1.8650483e-05, "MEAN_MOTION_DOT": 1.5e-07, "MEAN_MOTION_DDOT": 0}, "tle": {"line1": "1 28051U 03046A   25361.00833402  .00000015  00000+0  18650-4 0  9995", "line2": "2 28051  98.2159  40.7524 0065000 138.1152 336.1440 14.36080330155815"}}, "geometry": {"type": "Point", "coordinates": [-138.25946650526436, 5.36772571001174]}}, {"type": "Feature", "properties": {"norad_id": 28220, "name": "SHIYAN-1 (SY-1)", "group": "resource", "lat": 7.6005871815471115, "lon": -115.31573278203865, "alt_km": 482.3915622514196, "timestamp": "2025-12-27T05:29:38.850629+00:00", "meta": {"OBJECT_NAME": "SHIYAN-1 (SY-1)", "OBJECT_ID": "2004-012A", "EPOCH": "2025-12-26T22:27:28.893312", "MEAN_MOTION": 15.28517423, "ECCENTRICITY": 0.00051566, "INCLINATION": 97.8913, "RA_OF_ASC_NODE": 63.3132, "ARG_OF_PERICENTER": 265.4517, "MEAN_ANOMALY": 94.6132, "EPHEMERIS_TYPE": 0, "CLASSIFICATION_TYPE": "U", "NORAD_CAT_ID": 28220, "ELEMENT_SET_NO": 999, "REV_AT_EPOCH": 18473, "BSTAR": 0.00060456466, "MEAN_MOTION_DOT": 0.00016721, "MEAN_MOTION_DDOT": 0}, "tle": {"line1": "1 28220U 04012A   25360.93575108  .00016721  00000+0  60456-3 0  9995", "line2": "2 28220  97.8913  63.3132 0005156 265.4517  94.6132 15.28517423184734"}}, "geometry": {"type": "Point", "coordinates": [-115.31573278203865, 7.6005871815471115]}}, {"type": "Feature", "properties": {"norad_id": 28376, "name": "AURA", "group": "resource", "lat": -61.65621242275441, "lon": -32.73412636061819, "alt_km": 698.0777609733723, "timestamp": "2025-12-27T05:29:38.850641+00:00", "meta": {"OBJECT_NAME": "AURA", "OBJECT_ID": "2004-026A", "EPOCH": "2025-12-26T23:12:23.024160", "MEAN_MOTION": 14.60979857, "ECCENTRICITY": 0.00014518, "INCLINATION": 98.3204, "RA_OF_ASC_NODE": 311.2613, "ARG_OF_PERICENTER": 90.2891, "MEAN_ANOMALY": 269.8476, "EPHEMERIS_TYPE": 0, "CLASSIFICATION_TYPE": "U", "NORAD_CAT_ID": 28376, "ELEMENT_SET_NO": 999, "REV_AT_EPOCH": 14106, "BSTAR": 0.00027789887, "MEAN_MOTION_DOT": 1.314e-05, "MEAN_MOTION_DDOT": 0}, "tle": {"line1": "1 28376U 04026A   25360.96693315  .00001314  00000+0  27790-3 0  9992", "line2": "2 28376  98.3204 311.2613 0001451  90.2891 269.8476 14.60979857141061"}}, "geometry": {"type": "Point", "coordinates": [-32.73412636061819, -61.65621242275441]}}]}